{
"type": "FeatureCollection",
"name": "result",
"crs": { "type": "name", "properties": { "name": "urn:ogc:def:crs:OGC:1.3:CRS84" } },
"features": [
{ "type": "Feature", "properties": { "KEY_02": "38230103F007B", "CITY": 3823, "RIN": "0103", "SHO": "F", "SEGYO": "007", "EDA": "B", "SEGYOHANID": 344464.0, "SHONIN": 1, "AREA_": 0.0, "GIS_SEGYOH": 0.0, "KEY_02ORG": "38230103F007B", "SHAPE_AREA": 611.423662, "SHAPE_LEN": 109.37241206 }, "geometry": { "type": "MultiPolygon", "coordinates": [ [ [ [ 138.007422867821901, 35.996673714078035 ], [ 138.00735367057564, 35.996366577557829 ], [ 138.007239531838508, 35.996480215128692 ], [ 138.007149177527879, 35.996578835270149 ], [ 138.007109885755483, 35.996635042015527 ], [ 138.007093612671042, 35.996672785275265 ], [ 138.007090725520499, 35.996700065200436 ], [ 138.0072754402199, 35.996695109703872 ], [ 138.007422867821901, 35.996673714078035 ] ] ] ] } },
{ "type": "Feature", "properties": { "KEY_02": "38230103F008-", "CITY": 3823, "RIN": "0103", "SHO": "F", "SEGYO": "008", "EDA": "-", "SEGYOHANID": 349839.0, "SHONIN": 1, "AREA_": 0.0, "GIS_SEGYOH": 0.0, "KEY_02ORG": "38230103F008-", "SHAPE_AREA": 3309.86540745, "SHAPE_LEN": 253.32563299099999 }, "geometry": { "type": "MultiPolygon", "coordinates": [ [ [ [ 138.008456460715564, 35.996332101460744 ], [ 138.008358380302184, 35.996024387466619 ], [ 138.007526306649282, 35.995904948313516 ], [ 138.007540803753812, 35.995977806969812 ], [ 138.007506114755444, 35.996111022999557 ], [ 138.007468178470589, 35.996222233619591 ], [ 138.007449253678544, 35.996268898066432 ], [ 138.008474731845013, 35.996392122727315 ], [ 138.008456460715564, 35.996332101460744 ] ] ] ] } },
{ "type": "Feature", "properties": { "KEY_02": "38230103F011-", "CITY": 3823, "RIN": "0103", "SHO": "F", "SEGYO": "011", "EDA": "-", "SEGYOHANID": 349844.0, "SHONIN": 1, "AREA_": 0.0, "GIS_SEGYOH": 0.0, "KEY_02ORG": "38230103F011-", "SHAPE_AREA": 2380.2434549499999, "SHAPE_LEN": 200.73920761400001 }, "geometry": { "type": "MultiPolygon", "coordinates": [ [ [ [ 138.009005048251709, 35.996629717699534 ], [ 138.009092062007937, 35.996615184102012 ], [ 138.009064656850597, 35.996536324137161 ], [ 138.008995678861481, 35.99632146597407 ], [ 138.008950138253113, 35.996108425215638 ], [ 138.008769540360049, 35.996205602790667 ], [ 138.008708627254435, 35.996238379295427 ], [ 138.008522368837447, 35.996295688016943 ], [ 138.008456460715564, 35.996332101460744 ], [ 138.008474731845013, 35.996392122727315 ], [ 138.008535860000791, 35.996598963380272 ], [ 138.008569129689107, 35.996712349790513 ], [ 138.009005048251709, 35.996629717699534 ] ] ] ] } },
{ "type": "Feature", "properties": { "KEY_02": "38230103F007A", "CITY": 3823, "RIN": "0103", "SHO": "F", "SEGYO": "007", "EDA": "A", "SEGYOHANID": 344463.0, "SHONIN": 1, "AREA_": 0.0, "GIS_SEGYOH": 0.0, "KEY_02ORG": "38230103F007A", "SHAPE_AREA": 3127.4557344999998, "SHAPE_LEN": 267.40149949300002 }, "geometry": { "type": "MultiPolygon", "coordinates": [ [ [ [ 138.008535860000791, 35.996598963380272 ], [ 138.008474731845013, 35.996392122727315 ], [ 138.007449253678544, 35.996268898066432 ], [ 138.00735367057564, 35.996366577557829 ], [ 138.007422867821901, 35.996673714078035 ], [ 138.008014268308472, 35.996590903724524 ], [ 138.008421387351348, 35.996566443618484 ], [ 138.008535860000791, 35.996598963380272 ] ] ] ] } },
{ "type": "Feature", "properties": { "KEY_02": "38230103F010B", "CITY": 3823, "RIN": "0103", "SHO": "F", "SEGYO": "010", "EDA": "B", "SEGYOHANID": 349843.0, "SHONIN": 1, "AREA_": 0.0, "GIS_SEGYOH": 0.0, "KEY_02ORG": "38230103F010B", "SHAPE_AREA": 932.12842436000005, "SHAPE_LEN": 123.391195466 }, "geometry": { "type": "MultiPolygon", "coordinates": [ [ [ [ 138.008769540360049, 35.996205602790667 ], [ 138.008621486656438, 35.995950485143993 ], [ 138.008358380302184, 35.996024387466619 ], [ 138.008456460715564, 35.996332101460744 ], [ 138.008522368837447, 35.996295688016943 ], [ 138.008708627254435, 35.996238379295427 ], [ 138.008769540360049, 35.996205602790667 ] ] ] ] } },
{ "type": "Feature", "properties": { "KEY_02": "38230103F010C", "CITY": 3823, "RIN": "0103", "SHO": "F", "SEGYO": "010", "EDA": "C", "SEGYOHANID": 1295082.0, "SHONIN": 1, "AREA_": 0.0, "GIS_SEGYOH": 0.0, "KEY_02ORG": "38230103F010A", "SHAPE_AREA": 1133.12287307, "SHAPE_LEN": 191.168645631 }, "geometry": { "type": "MultiPolygon", "coordinates": [ [ [ [ 138.008666003254746, 35.995389086526792 ], [ 138.008694679691359, 35.995508739876598 ], [ 138.00875170674172, 35.995656111164202 ], [ 138.008823217806537, 35.995803541726495 ], [ 138.008945171054336, 35.995992377806914 ], [ 138.009029144234688, 35.996088936804504 ], [ 138.009240368325351, 35.995959499008286 ], [ 138.009172697146738, 35.995882978177519 ], [ 138.009166330951871, 35.995875779471426 ], [ 138.009095469317401, 35.995814948238987 ], [ 138.008991902616771, 35.995740724774116 ], [ 138.008870943635173, 35.995645420381621 ], [ 138.008666003254746, 35.995389086526792 ] ] ] ] } },
{ "type": "Feature", "properties": { "KEY_02": "38230103F501-", "CITY": 3823, "RIN": "0103", "SHO": "F", "SEGYO": "501", "EDA": "-", "SEGYOHANID": 1745416.0, "SHONIN": 1, "AREA_": 0.0, "GIS_SEGYOH": 0.0, "KEY_02ORG": "38230103F501-", "SHAPE_AREA": 1710.3805636, "SHAPE_LEN": 209.43370218499999 }, "geometry": { "type": "MultiPolygon", "coordinates": [ [ [ [ 138.007151845335471, 35.995601109707586 ], [ 138.007150643047453, 35.995647995637846 ], [ 138.007320933406305, 35.995923545474881 ], [ 138.007181458446269, 35.995998803738324 ], [ 138.007135002668718, 35.996209993571995 ], [ 138.007343493304234, 35.996376709795541 ], [ 138.00735367057564, 35.996366577557829 ], [ 138.007449253678544, 35.996268898066432 ], [ 138.007468178470589, 35.996222233619591 ], [ 138.007506114755444, 35.996111022999557 ], [ 138.007540803753812, 35.995977806969812 ], [ 138.007526306649282, 35.995904948313516 ], [ 138.007502354106776, 35.995875458125802 ], [ 138.007394347604702, 35.995778979639994 ], [ 138.007269497307789, 35.995676564318529 ], [ 138.007151845335471, 35.995601109707586 ] ] ] ] } },
{ "type": "Feature", "properties": { "KEY_02": "38230103F502-", "CITY": 3823, "RIN": "0103", "SHO": "F", "SEGYO": "502", "EDA": "-", "SEGYOHANID": 349848.0, "SHONIN": 1, "AREA_": 0.0, "GIS_SEGYOH": 0.0, "KEY_02ORG": "38230103F502-", "SHAPE_AREA": 1782.7330099000001, "SHAPE_LEN": 182.63768847899999 }, "geometry": { "type": "MultiPolygon", "coordinates": [ [ [ [ 138.007550844685511, 35.9954188170843 ], [ 138.007507834836844, 35.995339973815135 ], [ 138.007488529836081, 35.995266040871165 ], [ 138.007498661404156, 35.995225946943037 ], [ 138.00704866827806, 35.995026305267594 ], [ 138.006991138252289, 35.995058182678953 ], [ 138.006955307611747, 35.995096566605525 ], [ 138.006933279614515, 35.995143028949457 ], [ 138.006931135512303, 35.995168716605569 ], [ 138.007037712424847, 35.995198654622463 ], [ 138.007067249763736, 35.995218046094372 ], [ 138.007076852146128, 35.995263034090918 ], [ 138.007088059119269, 35.995367434299062 ], [ 138.007111414255263, 35.995428540218413 ], [ 138.007197402232237, 35.995589444581299 ], [ 138.007550844685511, 35.9954188170843 ] ] ] ] } },
{ "type": "Feature", "properties": { "KEY_02": "38230103F013B", "CITY": 3823, "RIN": "0103", "SHO": "F", "SEGYO": "013", "EDA": "B", "SEGYOHANID": 1312933.0, "SHONIN": 1, "AREA_": 0.0, "GIS_SEGYOH": 0.0, "KEY_02ORG": "38230103F013-", "SHAPE_AREA": 1159.6289244899999, "SHAPE_LEN": 206.821736031 }, "geometry": { "type": "MultiPolygon", "coordinates": [ [ [ [ 138.009029144234688, 35.996088936804504 ], [ 138.00908899713383, 35.996157760944115 ], [ 138.009247309931169, 35.996323203171372 ], [ 138.009362168265852, 35.996488467468168 ], [ 138.009419378370296, 35.996606412165683 ], [ 138.009462177558106, 35.996712526744616 ], [ 138.0094825919046, 35.996780331356327 ], [ 138.009487823478821, 35.996692783773781 ], [ 138.009475517553767, 35.996539807488411 ], [ 138.009459538797955, 35.99644422989067 ], [ 138.009430505108469, 35.996316295803908 ], [ 138.009375026977011, 35.996180195808222 ], [ 138.009240368325351, 35.995959499008286 ], [ 138.009029144234688, 35.996088936804504 ] ] ] ] } },
{ "type": "Feature", "properties": { "KEY_02": "38230103F503-", "CITY": 3823, "RIN": "0103", "SHO": "F", "SEGYO": "503", "EDA": "-", "SEGYOHANID": 349849.0, "SHONIN": 1, "AREA_": 0.0, "GIS_SEGYOH": 0.0, "KEY_02ORG": "38230103F503-", "SHAPE_AREA": 1220.7895637500001, "SHAPE_LEN": 142.34523819899999 }, "geometry": { "type": "MultiPolygon", "coordinates": [ [ [ [ 138.008023393090753, 35.995094840736058 ], [ 138.008264579221873, 35.994795268327429 ], [ 138.008149671390271, 35.994767180989413 ], [ 138.008056884142064, 35.994734767814627 ], [ 138.007972409291938, 35.994722974681061 ], [ 138.007882257629433, 35.994718026215921 ], [ 138.007811737127213, 35.994729183596412 ], [ 138.007807839490653, 35.99490309422913 ], [ 138.007823477866964, 35.995106828380379 ], [ 138.007954257538529, 35.995084931150309 ], [ 138.007997735209557, 35.995088318151005 ], [ 138.008023393090753, 35.995094840736058 ] ] ] ] } },
{ "type": "Feature", "properties": { "KEY_02": "38230103F000-", "CITY": 3823, "RIN": "0103", "SHO": "F", "SEGYO": "000", "EDA": "-", "SEGYOHANID": 1745417.0, "SHONIN": 1, "AREA_": 0.0, "GIS_SEGYOH": 0.0, "KEY_02ORG": "38230103F501-", "SHAPE_AREA": 1206.81109988, "SHAPE_LEN": 254.62161033000001 }, "geometry": { "type": "MultiPolygon", "coordinates": [ [ [ [ 138.007150643047453, 35.995647995637846 ], [ 138.007146616255682, 35.995804983513416 ], [ 138.007137910997869, 35.99587463555482 ], [ 138.007129971406869, 35.995938165409768 ], [ 138.007085754116815, 35.996055181606593 ], [ 138.007065157454349, 35.996162128023371 ], [ 138.007054607084484, 35.99626964749239 ], [ 138.007071696830366, 35.996382102566599 ], [ 138.007070967585292, 35.996499297435307 ], [ 138.007066349779393, 35.996606850289538 ], [ 138.007093612671042, 35.996672785275265 ], [ 138.007109885755483, 35.996635042015527 ], [ 138.007149177527879, 35.996578835270149 ], [ 138.007239531838508, 35.996480215128692 ], [ 138.007343493304234, 35.996376709795541 ], [ 138.007135002668718, 35.996209993571995 ], [ 138.007181458446269, 35.995998803738324 ], [ 138.007320933406305, 35.995923545474881 ], [ 138.007150643047453, 35.995647995637846 ] ] ] ] } },
{ "type": "Feature", "properties": { "KEY_02": "38230103F009A", "CITY": 3823, "RIN": "0103", "SHO": "F", "SEGYO": "009", "EDA": "A", "SEGYOHANID": 349840.0, "SHONIN": 1, "AREA_": 0.0, "GIS_SEGYOH": 0.0, "KEY_02ORG": "38230103F009A", "SHAPE_AREA": 3293.4234883, "SHAPE_LEN": 238.07439939099999 }, "geometry": { "type": "MultiPolygon", "coordinates": [ [ [ [ 138.007913789021899, 35.995398467584202 ], [ 138.007683025128642, 35.995464308154645 ], [ 138.007633593638019, 35.995464105281691 ], [ 138.007590125759975, 35.995460718188696 ], [ 138.007502354106776, 35.995875458125802 ], [ 138.007526306649282, 35.995904948313516 ], [ 138.008358380302184, 35.996024387466619 ], [ 138.008287635743869, 35.995858823532934 ], [ 138.008177445946814, 35.995695819811594 ], [ 138.008089209982415, 35.995577052381272 ], [ 138.007990839594441, 35.995471772046855 ], [ 138.007913789021899, 35.995398467584202 ] ] ] ] } },
{ "type": "Feature", "properties": { "KEY_02": "38230103F009D", "CITY": 3823, "RIN": "0103", "SHO": "F", "SEGYO": "009", "EDA": "D", "SEGYOHANID": 349841.0, "SHONIN": 1, "AREA_": 0.0, "GIS_SEGYOH": 0.0, "KEY_02ORG": "38230103F009D", "SHAPE_AREA": 931.387473, "SHAPE_LEN": 127.463180439 }, "geometry": { "type": "MultiPolygon", "coordinates": [ [ [ [ 138.008452070564999, 35.995103574176284 ], [ 138.008264579221873, 35.994795268327429 ], [ 138.008023393090753, 35.995094840736058 ], [ 138.008131311381561, 35.995226938244222 ], [ 138.008452070564999, 35.995103574176284 ] ] ] ] } },
{ "type": "Feature", "properties": { "KEY_02": "38230103F009E", "CITY": 3823, "RIN": "0103", "SHO": "F", "SEGYO": "009", "EDA": "E", "SEGYOHANID": 349842.0, "SHONIN": 1, "AREA_": 0.0, "GIS_SEGYOH": 0.0, "KEY_02ORG": "38230103F009E", "SHAPE_AREA": 913.91297444999998, "SHAPE_LEN": 137.90876960700001 }, "geometry": { "type": "MultiPolygon", "coordinates": [ [ [ [ 138.007590125759975, 35.995460718188696 ], [ 138.007568494919326, 35.995441368314076 ], [ 138.007550844685511, 35.9954188170843 ], [ 138.007197402232237, 35.995589444581299 ], [ 138.007151845335471, 35.995601109707586 ], [ 138.007269497307789, 35.995676564318529 ], [ 138.007394347604702, 35.995778979639994 ], [ 138.007502354106776, 35.995875458125802 ], [ 138.007590125759975, 35.995460718188696 ] ] ] ] } },
{ "type": "Feature", "properties": { "KEY_02": "38230103F010A", "CITY": 3823, "RIN": "0103", "SHO": "F", "SEGYO": "010", "EDA": "A", "SEGYOHANID": 1295080.0, "SHONIN": 1, "AREA_": 0.0, "GIS_SEGYOH": 0.0, "KEY_02ORG": "38230103F010A", "SHAPE_AREA": 5303.58758872, "SHAPE_LEN": 348.63480718800002 }, "geometry": { "type": "MultiPolygon", "coordinates": [ [ [ [ 138.009029144234688, 35.996088936804504 ], [ 138.008945171054336, 35.995992377806914 ], [ 138.008823217806537, 35.995803541726495 ], [ 138.00875170674172, 35.995656111164202 ], [ 138.008694679691359, 35.995508739876598 ], [ 138.008666003254746, 35.995389086526792 ], [ 138.008583887254503, 35.995286377998077 ], [ 138.008452070564999, 35.995103574176284 ], [ 138.008131311381561, 35.995226938244222 ], [ 138.00813504051834, 35.995262267027279 ], [ 138.008107009646523, 35.995319953377006 ], [ 138.008043567237934, 35.995348589357349 ], [ 138.007913789021899, 35.995398467584202 ], [ 138.007990839594441, 35.995471772046855 ], [ 138.008089209982415, 35.995577052381272 ], [ 138.008177445946814, 35.995695819811594 ], [ 138.008287635743869, 35.995858823532934 ], [ 138.008358380302184, 35.996024387466619 ], [ 138.008621486656438, 35.995950485143993 ], [ 138.008769540360049, 35.996205602790667 ], [ 138.008950138253113, 35.996108425215638 ], [ 138.009027871657423, 35.996089716640832 ], [ 138.009029144234688, 35.996088936804504 ] ] ] ] } },
{ "type": "Feature", "properties": { "KEY_02": "38230103F013A", "CITY": 3823, "RIN": "0103", "SHO": "F", "SEGYO": "013", "EDA": "A", "SEGYOHANID": 1295081.0, "SHONIN": 1, "AREA_": 0.0, "GIS_SEGYOH": 0.0, "KEY_02ORG": "38230103F013-", "SHAPE_AREA": 3195.05811636, "SHAPE_LEN": 277.13679663900001 }, "geometry": { "type": "MultiPolygon", "coordinates": [ [ [ [ 138.0094825919046, 35.996780331356327 ], [ 138.009462177558106, 35.996712526744616 ], [ 138.009419378370296, 35.996606412165683 ], [ 138.009362168265852, 35.996488467468168 ], [ 138.009247309931169, 35.996323203171372 ], [ 138.00908899713383, 35.996157760944115 ], [ 138.009029144234688, 35.996088936804504 ], [ 138.009027871657423, 35.996089716640832 ], [ 138.008950138253113, 35.996108425215638 ], [ 138.008995678861481, 35.99632146597407 ], [ 138.009064656850597, 35.996536324137161 ], [ 138.009092062007937, 35.996615184102012 ], [ 138.009005048251709, 35.996629717699534 ], [ 138.009009259373528, 35.996732304478869 ], [ 138.009021855637201, 35.996829526704225 ], [ 138.009053209616837, 35.996967592129998 ], [ 138.009074407540538, 35.997092537916089 ], [ 138.009156522921046, 35.997073847197129 ], [ 138.009260573135464, 35.997061194828348 ], [ 138.00933968307578, 35.997056759490214 ], [ 138.00944084339821, 35.997055830253586 ], [ 138.009461255937595, 35.996971154151446 ], [ 138.00947858039757, 35.996847456543819 ], [ 138.0094825919046, 35.996780331356327 ] ] ] ] } }
]
}
